STARLINK-31996          
1 60100U 24117K   26068.32344912  .00000690  00000+0  35447-4 0  9993
2 60100  53.1613  38.5903 0001267  87.5677 272.5469 15.30178795 96839
NUSHSAT1                
1 63211U 25052B   26068.64700493  .00023034  00000+0  74857-3 0  9997
2 63211  97.4095 325.7239 0005501  84.7512 275.4357 15.31903202 54882
